ONEWEB-0309             
1 49095U 21075W   26168.54464600 -.00000041  00000+0 -13810-3 0  9996
2 49095  87.9134   5.7918 0001969 102.8946 257.2405 13.17648791233624
ONEWEB-0310             
1 49096U 21075X   26168.54055065 -.00000578  00000+0 -16413-2 0  9994
2 49096  87.8939 350.6100 0001811  91.6542 268.4794 13.12442855235237
ONEWEB-0311             
1 49097U 21075Y   26168.55140030  .00000070  00000+0  14669-3 0  9990
2 49097  87.9134   5.7900 0002267  81.7358 278.4030 13.17650815233675
ONEWEB-0312             
1 49098U 21075Z   26168.49065909 -.00000040  00000+0 -13501-3 0  9998
2 49098  87.9131   5.8128 0002193  91.1434 268.9949 13.17653145233643
ONEWEB-0313             
1 49099U 21075AA  26168.49557171 -.00000013  00000+0 -67137-4 0  9991
2 49099  87.9128   5.8177 0001991  86.3585 273.7774 13.17648516233637
ONEWEB-0314             
1 49100U 21075AB  26168.53790639 -.00000010  00000+0 -60206-4 0  9994
2 49100  87.9141   5.7818 0002237  91.0792 269.0596 13.17649329233614
ONEWEB-0315             
1 49101U 21075AC  26168.51345171  .00000073  00000+0  16679-3 0  9991
2 49101  87.8948 350.5793 0002059  81.7220 278.4142 13.12442477235215
ONEWEB-0316             
1 49102U 21075AD  26168.53819726  .00000093  00000+0  20385-3 0  9997
2 49102  87.9165 335.3861 0001915  92.0003 268.1349 13.18687280237259
ONEWEB-0317             
1 49103U 21075AE  26168.51684039 -.00000111  00000+0 -34355-3 0  9998
2 49103  87.8949 350.6025 0001558 114.4157 245.7135 13.12442642235238
ONEWEB-0318             
1 49104U 21075AF  26168.53482974  .00000056  00000+0  10921-3 0  9994
2 49104  87.9171 335.3883 0001998  86.9021 273.2340 13.18685914237211
ONEWEB-0319             
1 49105U 21075AG  26168.55308472  .00000025  00000+0  31588-4 0  9996
2 49105  87.9133   5.7951 0002188  76.4295 283.7080 13.17649407233650
ONEWEB-0323             
1 49106U 21075AH  26168.49820938  .00000409  00000+0  11027-2 0  9996
2 49106  87.8949 350.5875 0002299  82.0505 278.0885 13.12443608234595
ONEWEB-0329             
1 49107U 21075AJ  26168.48558738 -.00000012  00000+0 -64457-4 0  9991
2 49107  87.9133   5.8091 0002019  88.7855 271.3507 13.17649100233623
ONEWEB-0330             
1 49108U 21075AK  26168.50930266  .00005740  00000+0  14731-1 0  9993
2 49108  87.9132   5.8249 0001436  92.5205 267.6091 13.17695999233669
ONEWEB-0292             
1 49186U 21083A   26168.39409898  .00000111  00000+0  26807-3 0  9993
2 49186  87.8952 320.1969 0001942  91.7512 268.3839 13.13472204230955
ONEWEB-0303             
1 49187U 21083B   26168.53145354  .00000163  00000+0  37977-3 0  9991
2 49187  87.9166 335.3876 0001983  89.6637 270.4723 13.18687492230024
ONEWEB-0306             
1 49188U 21083C   26168.44545622  .00000055  00000+0  10570-3 0  9994
2 49188  87.9170 335.3926 0001763  99.7659 260.3672 13.18687066230059
ONEWEB-0307             
1 49189U 21083D   26168.38816730 -.00000029  00000+0 -11473-3 0  9995
2 49189  87.8955 320.1952 0001951  94.5396 265.5956 13.13470999230952
ONEWEB-0320             
1 49190U 21083E   26168.46568737  .00000006  00000+0 -17528-4 0  9999
2 49190  87.9160 335.4067 0001827  94.5032 265.6309 13.18686178230011
ONEWEB-0321             
1 49191U 21083F   26168.35256028  .00000036  00000+0  56225-4 0  9994
2 49191  87.9196 274.4018 0001814 107.4655 252.6677 13.20772258236850
ONEWEB-0322             
1 49192U 21083G   26168.38391456 -.00000127  00000+0 -38164-3 0  9997
2 49192  87.8952 320.1964 0001414 102.2513 257.8774 13.13468658230948
ONEWEB-0324             
1 49193U 21083H   26168.43871042  .00000024  00000+0  29015-4 0  9998
2 49193  87.9171 335.3994 0001989  97.6604 262.4754 13.18685128230037
ONEWEB-0325             
1 49194U 21083J   26168.51796317 -.00000036  00000+0 -12385-3 0  9995
2 49194  87.9162 335.3920 0001819  91.0361 269.0980 13.18685753230057
ONEWEB-0326             
1 49195U 21083K   26168.45740218  .00000033  00000+0  49788-4 0  9991
2 49195  87.9170 335.4019 0001990  85.9222 274.2138 13.18685450230030
ONEWEB-0327             
1 49196U 21083L   26168.53299825  .00000060  00000+0  11922-3 0  9992
2 49196  87.9163 335.3910 0001928  81.2643 278.8707 13.18685162230064
ONEWEB-0328             
1 49197U 21083M   26168.44995093 -.00000253  00000+0 -72706-3 0  9996
2 49197  87.8961 320.1562 0001962  99.3194 260.8157 13.13470517230931
ONEWEB-0331             
1 49198U 21083N   26168.45051197  .00000023  00000+0  25365-4 0  9999
2 49198  87.9171 335.3970 0002096  86.1802 273.9570 13.18686944230040
ONEWEB-0333             
1 49199U 21083P   26168.44487114 -.00000217  00000+0 -62894-3 0  9995
2 49199  87.8952 320.1834 0001838  95.2620 264.8719 13.13469808230946
ONEWEB-0334             
1 49200U 21083Q   26168.29272648 -.00009109  00000+0 -22280-1 0  9997
2 49200  87.9192 274.4247 0001688 127.0214 233.1074 13.21305473236801
ONEWEB-0335             
1 49201U 21083R   26168.43979439 -.00000166  00000+0 -48993-3 0  9991
2 49201  87.8954 320.1814 0001992  92.9162 267.2195 13.13470464230952
